{
  "type": "FeatureCollection",
  "features": [
    {
      "type": "Feature",
      "properties": {
        "norad_id": 34036,
        "name": "COSMOS 2251 DEB",
        "group": "cosmos-2251-debris",
        "lat": -23.037365510901196,
        "lon": 127.12752802982426,
        "alt_km": 593.4224520571788,
        "timestamp": "2025-12-20T05:41:50.424840+00:00",
        "meta_object_name": "COSMOS 2251 DEB",
        "meta_object_id": "1993-036HX",
        "meta_epoch": "2025-12-19T10:32:19.396032",
        "meta_mean_motion": 14.95474243,
        "meta_eccentricity": 0.0010946,
        "meta_inclination": 74.0197,
        "meta_ra_of_asc_node": 135.739,
        "meta_arg_of_pericenter": 166.4957,
        "meta_mean_anomaly": 193.6523,
        "meta_ephemeris_type": 0,
        "meta_classification_type": "U",
        "meta_norad_cat_id": 34036,
        "meta_element_set_no": 999,
        "meta_rev_at_epoch": 88670,
        "meta_bstar": 0.0024847,
        "meta_mean_motion_dot": 0.0002761,
        "meta_mean_motion_ddot": 0,
        "tle_line1": "1 34036U 93036HX  25353.43911338  .00027610  00000+0  24847-2 0  9999",
        "tle_line2": "2 34036  74.0197 135.7390 0010946 166.4957 193.6523 14.95474243886703"
      },
      "geometry": {
        "type": "Point",
        "coordinates": [
          127.12752802982426,
          -23.037365510901196
        ]
      }
    },
    {
      "type": "Feature",
      "properties": {
        "norad_id": 34037,
        "name": "COSMOS 2251 DEB",
        "group": "cosmos-2251-debris",
        "lat": -21.36457578475905,
        "lon": -136.85667972523595,
        "alt_km": 798.1500039723896,
        "timestamp": "2025-12-20T05:41:50.424850+00:00",
        "meta_object_name": "COSMOS 2251 DEB",
        "meta_object_id": "1993-036HY",
        "meta_epoch": "2025-12-19T13:42:06.001920",
        "meta_mean_motion": 14.34681394,
        "meta_eccentricity": 0.0051825,
        "meta_inclination": 74.0512,
        "meta_ra_of_asc_node": 37.9399,
        "meta_arg_of_pericenter": 85.8156,
        "meta_mean_anomaly": 274.8917,
        "meta_ephemeris_type": 0,
        "meta_classification_type": "U",
        "meta_norad_cat_id": 34037,
        "meta_element_set_no": 999,
        "meta_rev_at_epoch": 87815,
        "meta_bstar": 0.00030653,
        "meta_mean_motion_dot": 8.55e-06,
        "meta_mean_motion_ddot": 0,
        "tle_line1": "1 34037U 93036HY  25353.57090280  .00000855  00000+0  30653-3 0  9994",
        "tle_line2": "2 34037  74.0512  37.9399 0051825  85.8156 274.8917 14.34681394878152"
      },
      "geometry": {
        "type": "Point",
        "coordinates": [
          -136.85667972523595,
          -21.36457578475905
        ]
      }
    },
    {
      "type": "Feature",
      "properties": {
        "norad_id": 34040,
        "name": "COSMOS 2251 DEB",
        "group": "cosmos-2251-debris",
        "lat": 66.26806543588793,
        "lon": -167.41003082921068,
        "alt_km": 1044.4702300264426,
        "timestamp": "2025-12-20T05:41:50.424860+00:00",
        "meta_object_name": "COSMOS 2251 DEB",
        "meta_object_id": "1993-036JB",
        "meta_epoch": "2025-12-19T13:24:10.918080",
        "meta_mean_motion": 13.68384263,
        "meta_eccentricity": 0.0343262,
        "meta_inclination": 73.9557,
        "meta_ra_of_asc_node": 54.596,
        "meta_arg_of_pericenter": 6.5752,
        "meta_mean_anomaly": 353.9696,
        "meta_ephemeris_type": 0,
        "meta_classification_type": "U",
        "meta_norad_cat_id": 34040,
        "meta_element_set_no": 999,
        "meta_rev_at_epoch": 83693,
        "meta_bstar": 0.00048435,
        "meta_mean_motion_dot": 6.02e-06,
        "meta_mean_motion_ddot": 0,
        "tle_line1": "1 34040U 93036JB  25353.55845970  .00000602  00000+0  48435-3 0  9997",
        "tle_line2": "2 34040  73.9557  54.5960 0343262   6.5752 353.9696 13.68384263836937"
      },
      "geometry": {
        "type": "Point",
        "coordinates": [
          -167.41003082921068,
          66.26806543588793
        ]
      }
    },
    {
      "type": "Feature",
      "properties": {
        "norad_id": 34045,
        "name": "COSMOS 2251 DEB",
        "group": "cosmos-2251-debris",
        "lat": -47.3258578531815,
        "lon": 135.19719393515658,
        "alt_km": 800.4653187734921,
        "timestamp": "2025-12-20T05:41:50.424870+00:00",
        "meta_object_name": "COSMOS 2251 DEB",
        "meta_object_id": "1993-036JG",
        "meta_epoch": "2025-12-19T20:24:43.675200",
        "meta_mean_motion": 14.34072515,
        "meta_eccentricity": 0.00259577,
        "meta_inclination": 74.0395,
        "meta_ra_of_asc_node": 297.8205,
        "meta_arg_of_pericenter": 19.3257,
        "meta_mean_anomaly": 14.0853,
        "meta_ephemeris_type": 0,
        "meta_classification_type": "U",
        "meta_norad_cat_id": 34045,
        "meta_element_set_no": 999,
        "meta_rev_at_epoch": 88135,
        "meta_bstar": 6.6292511e-05,
        "meta_mean_motion_dot": 1.6e-06,
        "meta_mean_motion_ddot": 0,
        "tle_line1": "1 34045U 93036JG  25353.85050550  .00000160  00000+0  66293-4 0  9999",
        "tle_line2": "2 34045  74.0395 297.8205 0025957  19.3257  14.0853 14.34072515881352"
      },
      "geometry": {
        "type": "Point",
        "coordinates": [
          135.19719393515658,
          -47.3258578531815
        ]
      }
    },
    {
      "type": "Feature",
      "properties": {
        "norad_id": 34046,
        "name": "COSMOS 2251 DEB",
        "group": "cosmos-2251-debris",
        "lat": -14.348570514002985,
        "lon": -179.32808300051093,
        "alt_km": 765.1441364220182,
        "timestamp": "2025-12-20T05:41:50.424880+00:00",
        "meta_object_name": "COSMOS 2251 DEB",
        "meta_object_id": "1993-036JH",
        "meta_epoch": "2025-12-19T11:06:49.799232",
        "meta_mean_motion": 14.46523358,
        "meta_eccentricity": 0.0074443,
        "meta_inclination": 74.039,
        "meta_ra_of_asc_node": 357.9188,
        "meta_arg_of_pericenter": 79.329,
        "meta_mean_anomaly": 44.1428,
        "meta_ephemeris_type": 0,
        "meta_classification_type": "U",
        "meta_norad_cat_id": 34046,
        "meta_element_set_no": 999,
        "meta_rev_at_epoch": 87923,
        "meta_bstar": 0.0008267,
        "meta_mean_motion_dot": 3.055e-05,
        "meta_mean_motion_ddot": 0,
        "tle_line1": "1 34046U 93036JH  25353.46307638  .00003055  00000+0  82670-3 0  9991",
        "tle_line2": "2 34046  74.0390 357.9188 0074443  79.3290  44.1428 14.46523358879238"
      },
      "geometry": {
        "type": "Point",
        "coordinates": [
          -179.32808300051093,
          -14.348570514002985
        ]
      }
    },
    {
      "type": "Feature",
      "properties": {
        "norad_id": 34050,
        "name": "COSMOS 2251 DEB",
        "group": "cosmos-2251-debris",
        "lat": 23.195288131390154,
        "lon": 170.17029201928676,
        "alt_km": 919.5123174906958,
        "timestamp": "2025-12-20T05:41:50.424890+00:00",
        "meta_object_name": "COSMOS 2251 DEB",
        "meta_object_id": "1993-036JM",
        "meta_epoch": "2025-12-19T10:35:38.770080",
        "meta_mean_motion": 13.96194973,
        "meta_eccentricity": 0.0214635,
        "meta_inclination": 74.0882,
        "meta_ra_of_asc_node": 358.5562,
        "meta_arg_of_pericenter": 61.1529,
        "meta_mean_anomaly": 52.8986,
        "meta_ephemeris_type": 0,
        "meta_classification_type": "U",
        "meta_norad_cat_id": 34050,
        "meta_element_set_no": 999,
        "meta_rev_at_epoch": 85525,
        "meta_bstar": 0.00051879,
        "meta_mean_motion_dot": 8.44e-06,
        "meta_mean_motion_ddot": 0,
        "tle_line1": "1 34050U 93036JM  25353.44142095  .00000844  00000+0  51879-3 0  9998",
        "tle_line2": "2 34050  74.0882 358.5562 0214635  61.1529  52.8986 13.96194973855257"
      },
      "geometry": {
        "type": "Point",
        "coordinates": [
          170.17029201928676,
          23.195288131390154
        ]
      }
    },
    {
      "type": "Feature",
      "properties": {
        "norad_id": 34053,
        "name": "COSMOS 2251 DEB",
        "group": "cosmos-2251-debris",
        "lat": -61.898369619379466,
        "lon": -162.78809750914073,
        "alt_km": 1036.3730672782658,
        "timestamp": "2025-12-20T05:41:50.424901+00:00",
        "meta_object_name": "COSMOS 2251 DEB",
        "meta_object_id": "1993-036JQ",
        "meta_epoch": "2025-12-19T01:32:20.446656",
        "meta_mean_motion": 13.49171011,
        "meta_eccentricity": 0.04225955,
        "meta_inclination": 73.8435,
        "meta_ra_of_asc_node": 231.9802,
        "meta_arg_of_pericenter": 19.4918,
        "meta_mean_anomaly": 342.1806,
        "meta_ephemeris_type": 0,
        "meta_classification_type": "U",
        "meta_norad_cat_id": 34053,
        "meta_element_set_no": 999,
        "meta_rev_at_epoch": 82769,
        "meta_bstar": 0.00056919139,
        "meta_mean_motion_dot": 6e-06,
        "meta_mean_motion_ddot": 0,
        "tle_line1": "1 34053U 93036JQ  25353.06412554  .00000600  00000+0  56919-3 0  9999",
        "tle_line2": "2 34053  73.8435 231.9802 0422595  19.4918 342.1806 13.49171011827695"
      },
      "geometry": {
        "type": "Point",
        "coordinates": [
          -162.78809750914073,
          -61.898369619379466
        ]
      }
    }
  ]
}